ID,Status,Number_of_port,location,Lat,Lon,Address
0,A,2,"https://www.google.com/maps/place/ChargePoint+Charging+Station/@40.8370468,-111.9129727,16z/data=!4m8!1m2!2m1!1schargepoint!3m4!1s0x0:0x2ba045b17f73f948!8m2!3d40.8356819!4d-111.9117674",40.8356819,-111.9117674,"325 S Orchard Dr, North Salt Lake, UT 84054"
1,A,2,"https://www.google.com/maps/place/ChargePoint+Charging+Station/@40.8214257,-111.9234221,13.75z/data=!4m8!1m2!2m1!1schargepoint!3m4!1s0x0:0x1bea9eb327933874!8m2!3d40.8159448!4d-111.9482589",40.8159448,-111.9482589,"2280 Rose Park Ln, Salt Lake City, UT 84116"
2,A,4,"https://www.google.com/maps/place/ChargePoint+Charging+Station/@40.7744475,-111.9466761,20z/data=!4m8!1m2!2m1!1schargepoint!3m4!1s0x8752f47132dbfd43:0xb7fa88914eac4abf!8m2!3d40.77421!4d-111.9462197",40.77421,-111.9462197,"210 N 1950 W, Salt Lake City, UT 84134"
3,A,2,"https://www.google.com/maps/place/ChargePoint+Charging+Station/@40.7735214,-111.9467316,18.75z/data=!4m8!1m2!2m1!1schargepoint!3m4!1s0x8752f4772cbd1f25:0x3a4e33a6d17b1069!8m2!3d40.7730999!4d-111.9463699",40.7730999,-111.9463699,"168 N 1950 W, Salt Lake City, UT 84116"
4,A,8,"https://www.google.com/maps/place/ChargePoint+Charging+Station/@40.7734465,-111.947848,18.75z/data=!4m8!1m2!2m1!1schargepoint!3m4!1s0x8752f476fca52925:0x1b517709745dded7!8m2!3d40.77327!4d-111.9485801",40.77327,-111.9485801,"1990 W North Temple, Salt Lake City, UT 84116"
5,A,6,"https://www.google.com/maps/place/ChargePoint+Charging+Station/@40.7743863,-111.9479224,18.5z/data=!4m8!1m2!2m1!1schargepoint!3m4!1s0x8752f476834ee7df:0xaa66817490f89fc0!8m2!3d40.7751732!4d-111.9485553",40.7751732,-111.9485553,"195 N 1950 W, Salt Lake City, UT 84116"
6,U,6,"https://www.google.com/maps/place/ChargePoint+Charging+Station/@40.7741163,-111.9476796,18.5z/data=!4m8!1m2!2m1!1schargepoint!3m4!1s0x0:0xf01d63aa970f0c5!8m2!3d40.7737989!4d-111.9475571",40.7737989,-111.9475571,"240 N 1950 W, Salt Lake City, UT 84116"
7,A,8,"https://www.google.com/maps/place/ChargePoint+Charging+Station/@40.7691029,-111.9895037,14.25z/data=!4m8!1m2!2m1!1schargepoint!3m4!1s0x0:0x94e468226d62b1b7!8m2!3d40.7742003!4d-111.9815987",40.7742003,-111.9815987,"775 N Terminal Dr, Salt Lake City, UT 84114"
8,A,8,"https://www.google.com/maps/place/ChargePoint+Charging+Station/@40.7784042,-111.9820378,17z/data=!4m8!1m2!2m1!1schargepoint!3m4!1s0x8752f3c412b56a73:0x1c8fbcd0b1053922!8m2!3d40.7794305!4d-111.9828916",40.7794305,-111.9828916,"475 North S 3820 W, Salt Lake City, UT 84114"
9,A,8,"https://www.google.com/maps/place/ChargePoint+Charging+Station/@40.782824,-111.9848944,19z/data=!4m8!1m2!2m1!1schargepoint!3m4!1s0x8752f3dad2e77ccb:0x4c92cb505ce87b90!8m2!3d40.7825851!4d-111.9856301",40.7825851,-111.9856301,"3701 Terminal Dr, Salt Lake City, UT 84122"
10,A,8,"https://www.google.com/maps/place/ChargePoint+Charging+Station/@40.782824,-111.9848944,19z/data=!4m8!1m2!2m1!1schargepoint!3m4!1s0x8752f3dad5e6c06d:0x473ffd95f8f27b51!8m2!3d40.7828898!4d-111.9851151",40.7828898,-111.9851151,"3701 Terminal Dr, Salt Lake City, UT 84122"
11,A,4,"https://www.google.com/maps/place/ChargePoint+Charging+Station/@40.782824,-111.9848944,19z/data=!4m8!1m2!2m1!1schargepoint!3m4!1s0x8752f3db3528b515:0xa532b0509edb9a23!8m2!3d40.7829248!4d-111.9837123",40.7829248,-111.9837123,"1 Terminal Dr, Salt Lake City, UT 84116"
12,A,10,"https://www.google.com/maps/place/ChargePoint+Charging+Station/@40.782832,-111.9845842,20.25z/data=!4m8!1m2!2m1!1schargepoint!3m4!1s0x8752f3db3284764f:0xf37242bf7d1a7210!8m2!3d40.782906!4d-111.9842702",40.782906,-111.9842702,"3701 Terminal Dr, Salt Lake City, UT 84104"
13,A,2,"https://www.google.com/maps/place/ChargePoint+Charging+Station/@40.782832,-111.9845842,20.25z/data=!4m8!1m2!2m1!1schargepoint!3m4!1s0x8752f3c4cd4b22db:0xe844c882ac23ef9b!8m2!3d40.7827872!4d-111.9842152",40.7827872,-111.9842152,"3701 Terminal Dr, Salt Lake City, UT 84122"
14,A,8,"https://www.google.com/maps/place/ChargePoint+Charging+Station/@40.7726323,-112.0178399,16.25z/data=!4m8!1m2!2m1!1schargepoint!3m4!1s0x0:0x1917b1cce6c99f4b!8m2!3d40.7723072!4d-112.0196486",40.7723072,-112.0196486,"202 Jimmy Doolittle Rd, Salt Lake City, UT 84116"
15,A,8,"https://www.google.com/maps/place/ChargePoint+Charging+Station/@40.772035,-111.9468383,15.25z/data=!4m8!1m2!2m1!1schargepoint!3m4!1s0x0:0x80e55a5cc8ddd675!8m2!3d40.7764651!4d-111.9339278",40.7764651,-111.9339278,"290 N 1460 W, Salt Lake City, UT 84116"
16,U,8,"https://www.google.com/maps/place/ChargePoint+Charging+Station/@40.772035,-111.9468383,15.25z/data=!4m8!1m2!2m1!1schargepoint!3m4!1s0x0:0x39b4330e53b9a546!8m2!3d40.7712611!4d-111.9323829",40.7712611,-111.9323829,"1407 W North Temple, Salt Lake City, UT 84116"
17,A,2,"https://www.google.com/maps/place/ChargePoint+Charging+Station/@40.7593423,-111.9478359,17.25z/data=!4m8!1m2!2m1!1schargepoint!3m4!1s0x0:0x87ea3ae3d464da79!8m2!3d40.7586577!4d-111.9467032",40.7586577,-111.9467032,"1990 W 500 S, Salt Lake City, UT 84104"
18,A,2,"https://www.google.com/maps/place/ChargePoint+Charging+Station/@40.7593423,-111.9478359,17.25z/data=!4m8!1m2!2m1!1schargepoint!3m4!1s0x8752f486b433c4b3:0xb7ff7eb51a6f400a!8m2!3d40.7576622!4d-111.945977",40.7576622,-111.945977,"1965 W 500 S, Salt Lake City, UT 84104"
19,U,2,"https://www.google.com/maps/place/ChargePoint+Charging+Station/@40.7212054,-111.9482614,15.5z/data=!4m8!1m2!2m1!1schargepoint!3m4!1s0x0:0xa3957886bbec2014!8m2!3d40.7197457!4d-111.9430527",40.7197457,-111.9430527,"1920 Alexander St, West Valley City, UT 84119"
20,A,4,"https://www.google.com/maps/place/ChargePoint+Charging+Station/@40.7212054,-111.9482614,15.5z/data=!4m8!1m2!2m1!1schargepoint!3m4!1s0x0:0x196a489c0a4235e1!8m2!3d40.7276084!4d-111.9600177",40.7276084,-111.9600177,"2010 S 2760 W, Salt Lake City, UT 84104"
21,A,2,"https://www.google.com/maps/place/ChargePoint+Charging+Station/@40.7129161,-111.992195,15z/data=!4m8!1m2!2m1!1schargepoint!3m4!1s0x0:0xb2c4665841d1fc89!8m2!3d40.7130572!4d-111.9851473",40.7130572,-111.9851473,"3930 Parkway Blvd, West Valley City, UT 84120"
22,A,2,"https://www.google.com/maps/place/ChargePoint+Charging+Station/@40.7129161,-111.992195,15z/data=!4m8!1m2!2m1!1schargepoint!3m4!1s0x0:0x9d17ed4f22ca30cc!8m2!3d40.7138847!4d-112.0023912",40.7138847,-112.0023912,"4646 Lake Park Blvd, West Valley City, UT 84120"
23,A,4,"https://www.google.com/maps/place/ChargePoint+Charging+Station/@40.6952481,-111.9630882,18.5z/data=!4m8!1m2!2m1!1schargepoint!3m4!1s0x0:0x6a543264746787e3!8m2!3d40.69568!4d-111.96336",40.69568,-111.96336,"3538 Beehive St, West Valley City, UT 84119"
24,A,2,"https://www.google.com/maps/place/ChargePoint+Charging+Station/@40.6952481,-111.9630882,18.5z/data=!4m8!1m2!2m1!1schargepoint!3m4!1s0x87528c99fadd0965:0x6a7dcf62bc451e91!8m2!3d40.695666!4d-111.9635783",40.695666,-111.9635783,"3532 Beehive St, West Valley City, UT 84119"
25,A,2,"https://www.google.com/maps/place/ChargePoint+Charging+Station/@40.6954919,-111.9626848,18.25z/data=!4m8!1m2!2m1!1schargepoint!3m4!1s0x87528c9994758fc9:0xb8b7926c0e6f3c37!8m2!3d40.696271!4d-111.9624183",40.696271,-111.9624183,"2945 W 3500 S, West Valley City, UT 84119"
26,A,2,"https://www.google.com/maps/place/ChargePoint+Charging+Station/@40.694648,-111.9617188,18z/data=!4m8!1m2!2m1!1schargepoint!3m4!1s0x0:0xec9494a8cf4a7b4f!8m2!3d40.694648!4d-111.9610681",40.694648,-111.9610681,"2843 W 3590 S, West Valley City, UT 84119"
27,A,4,"https://www.google.com/maps/place/ChargePoint+Charging+Station/@40.6949094,-111.961152,20z/data=!4m8!1m2!2m1!1schargepoint!3m4!1s0x87528c9bcbd72ae5:0x5eb997193b1e6e26!8m2!3d40.6946482!4d-111.9608418",40.6946482,-111.9608418,"2846 Lehman Ave, West Valley City, UT 84119"
28,A,2,"https://www.google.com/maps/place/ChargePoint+Charging+Station/@40.6952649,-111.9608994,19.5z/data=!4m8!1m2!2m1!1schargepoint!3m4!1s0x87528c9bd0d952dd:0x99eec0699520b870!8m2!3d40.6953641!4d-111.9606118",40.6953641,-111.9606118,"2842 W 3590 S, West Valley City, UT 84119"
29,A,2,"https://www.google.com/maps/place/ChargePoint+Charging+Station/@40.6667111,-111.984744,17z/data=!4m13!1m7!3m6!1s0x87528c44afbe7601:0x9945cfad9840b9c4!2s3845+W+4700+S,+Taylorsville,+UT+84129!3b1!8m2!3d40.6667111!4d-111.9825553!3m4!1s0x87528c44ba120e65:0xb655113368a30ada!8m2!3d40.6664169!4d-111.9831021",40.6664169,-111.9831021,"3845 W 4700 S, Salt Lake City, UT 84118"
30,A,4,"https://www.google.com/maps/place/ChargePoint+Charging+Station/@40.6713808,-111.9453801,17.5z/data=!4m13!1m7!3m6!1s0x87528b8f1ddc374f:0x173627a3fa853af!2s4600+S+Redwood+Rd,+Salt+Lake+City,+UT+84123!3b1!8m2!3d40.6724474!4d-111.9443311!3m4!1s0x0:0x6915c240e9fa8a4!8m2!3d40.6703815!4d-111.9437058",40.6703815,-111.9437058,"Community Blvd, Salt Lake City, UT 84119"
31,A,2,"https://www.google.com/maps/place/ChargePoint+Charging+Station/@40.6744105,-111.9462974,16.75z/data=!4m13!1m7!3m6!1s0x87528b8f1ddc374f:0x173627a3fa853af!2s4600+S+Redwood+Rd,+Salt+Lake+City,+UT+84123!3b1!8m2!3d40.6724474!4d-111.9443311!3m4!1s0x87528b86689ad4c3:0x712aae4b986986da!8m2!3d40.6759351!4d-111.9475454",40.6759351,-111.9475454,"4365 2200 W, Salt Lake City, UT 84119"
32,A,32,"https://www.google.com/maps/place/ChargePoint+Charging+Station/@40.6770689,-111.9564447,17z/data=!4m13!1m7!3m6!1s0x87528b8f1ddc374f:0x173627a3fa853af!2s4600+S+Redwood+Rd,+Salt+Lake+City,+UT+84123!3b1!8m2!3d40.6724474!4d-111.9443311!3m4!1s0x87528c7ecb1f4745:0x5af32cd00f97614f!8m2!3d40.6772792!4d-111.9565147",40.6772792,-111.9565147,"4315 S 2700 W, Taylorsville, UT 84129"
33,A,18,"https://www.google.com/maps/place/ChargePoint+Charging+Station/@40.6713107,-111.9566884,17.75z/data=!4m13!1m7!3m6!1s0x87528b8f1ddc374f:0x173627a3fa853af!2s4600+S+Redwood+Rd,+Salt+Lake+City,+UT+84123!3b1!8m2!3d40.6724474!4d-111.9443311!3m4!1s0x0:0xc8c91bde86abb25a!8m2!3d40.6718462!4d-111.9567561",40.6718462,-111.9567561,"4501 2700 W, Salt Lake City, UT 84119"
34,A,12,"https://www.google.com/maps/place/ChargePoint+Charging+Station/@40.6700006,-111.956084,18z/data=!4m13!1m7!3m6!1s0x87528b8f1ddc374f:0x173627a3fa853af!2s4600+S+Redwood+Rd,+Salt+Lake+City,+UT+84123!3b1!8m2!3d40.6724474!4d-111.9443311!3m4!1s0x87528c76e2a98491:0x61f032c37ae9c0e8!8m2!3d40.6700392!4d-111.9560011",40.6700392,-111.9560011,"2600 W 4700 S, Taylorsville, UT 84129"
35,U,4,"https://www.google.com/maps/place/ChargePoint+Charging+Station/@40.7168339,-112.0518783,16.5z/data=!4m8!1m2!2m1!1s6839+s+2540+e!3m4!1s0x8752ed595a709349:0xf4b05ba1835087ba!8m2!3d40.7152742!4d-112.0530917",40.7152742,-112.0530917,"West Valley City, UT 84128"
36,A,2,"https://www.google.com/maps/place/ChargePoint+Charging+Station/@40.7703418,-111.8408579,18z/data=!4m8!1m2!2m1!1schargepoint!3m4!1s0x0:0xc17f8e79eea087a8!8m2!3d40.7704384!4d-111.8427649",40.7704384,-111.8427649,"9 S Wasatch Dr, Salt Lake City, UT 84112"
37,A,2,"https://www.google.com/maps/place/ChargePoint+Charging+Station/@40.7703418,-111.8408579,18z/data=!4m8!1m2!2m1!1schargepoint!3m4!1s0x87525f90f78cad3b:0x10d27e9697b65d9!8m2!3d40.7706943!4d-111.8418603",40.7706943,-111.8418603,"11 S Wasatch Dr, Salt Lake City, UT 84112"
38,A,2,"https://www.google.com/maps/place/ChargePoint+Charging+Station/@40.7714468,-111.8397314,18z/data=!4m8!1m2!2m1!1schargepoint!3m4!1s0x87525f90bea2440b:0xa372fc4fce2c5d22!8m2!3d40.7718877!4d-111.8401766",40.7718877,-111.8401766,"57-77 Mario Capecchi Dr, Salt Lake City, UT 84112"
39,A,2,"https://www.google.com/maps/place/ChargePoint+Charging+Station/@40.7714468,-111.8397314,18z/data=!4m8!1m2!2m1!1schargepoint!3m4!1s0x0:0x2db28fce968a5850!8m2!3d40.7715343!4d-111.8396904",40.7715343,-111.8396904,"30 N 1900 E, Salt Lake City, UT 84132"
40,A,4,"https://www.google.com/maps/place/ChargePoint+Charging+Station/@40.7651428,-111.8429725,17.5z/data=!4m8!1m2!2m1!1schargepoint!3m4!1s0x0:0x3c0d695c87bba8f6!8m2!3d40.7646352!4d-111.84249",40.7646352,-111.84249,"215 Central Campus Dr, Salt Lake City, UT 84112"
41,A,4,"https://www.google.com/maps/place/ChargePoint+Charging+Station/@40.7642062,-111.8404993,17.5z/data=!4m8!1m2!2m1!1schargepoint!3m4!1s0x87525feb5af98c89:0x6a93ea38d5b39359!8m2!3d40.762788!4d-111.8383922",40.762788,-111.8383922,"238 1850 E, Salt Lake City, UT 84112"
42,A,2,"https://www.google.com/maps/place/ChargePoint+Charging+Station/@40.7604343,-111.8371389,16.75z/data=!4m8!1m2!2m1!1schargepoint!3m4!1s0x0:0x6937df4842fb3a8d!8m2!3d40.7583205!4d-111.8359803",40.7583205,-111.8359803,"555 Foothill Dr, Salt Lake City, UT 84112"
43,A,4,"https://www.google.com/maps/place/ChargePoint+Charging+Station/@40.7627081,-111.8450834,16.25z/data=!4m8!1m2!2m1!1schargepoint!3m4!1s0x0:0xf568db0641d6f0e9!8m2!3d40.7617082!4d-111.850998",40.7617082,-111.850998,"357 1400 E, Salt Lake City, UT 84112"
44,A,4,"https://www.google.com/maps/place/ChargePoint+Charging+Station/@40.7615737,-111.8677282,16.25z/data=!4m8!1m2!2m1!1schargepoint!3m4!1s0x0:0x993bad7e3307f6fd!8m2!3d40.7619662!4d-111.8645029",40.7619662,-111.8645029,"333 900 E, Salt Lake City, UT 84102"
45,A,4,"https://www.google.com/maps/place/ChargePoint+Charging+Station/@40.7590071,-111.870557,20z/data=!4m8!1m2!2m1!1schargepoint!3m4!1s0x8752f5685bfda403:0xd7d5cee58b6d378e!8m2!3d40.7592139!4d-111.8706793",40.7592139,-111.8706793,"455 S 700 E, Salt Lake City, UT 84102"
46,U,10,"https://www.google.com/maps/place/ChargePoint+Charging+Station/@40.7589692,-111.8815109,19.75z/data=!4m8!1m2!2m1!1schargepoint!3m4!1s0x0:0x24bddedf9ce9137a!8m2!3d40.7589599!4d-111.8813041",40.7589599,-111.8813041,"475 S 300 E, Salt Lake City, UT 84111"
47,A,8,"https://www.google.com/maps/place/ChargePoint+Charging+Station/@40.7585222,-111.8836133,21z/data=!4m8!1m2!2m1!1schargepoint!3m4!1s0x8752f5146304c745:0x1fa8cb8fca9f7c8b!8m2!3d40.7585653!4d-111.8838738",40.7585653,-111.8838738,"255 E 500 S, Salt Lake City, UT 84111"
48,A,2,"https://www.google.com/maps/place/ChargePoint+Charging+Station/@40.7585121,-111.8835047,21z/data=!4m8!1m2!2m1!1schargepoint!3m4!1s0x8752f5148c136c8b:0x98045615d1c85fcb!8m2!3d40.7584662!4d-111.8832502",40.7584662,-111.8832502,"261 E 500 S, Salt Lake City, UT 84111"
49,A,6,"https://www.google.com/maps/place/ChargePoint+Charging+Station/@40.7596624,-111.8835224,19.75z/data=!4m5!3m4!1s0x0:0x45fa1496768dbb3f!8m2!3d40.7595376!4d-111.883972",40.7595376,-111.883972,"210 E 400 S, Salt Lake City, UT 84111"
50,A,4,"https://www.google.com/maps/place/ChargePoint+Charging+Station/@40.7610464,-111.8846826,19.5z/data=!4m5!3m4!1s0x8752f513b3b7e7eb:0x4e0bbff30eb6ef05!8m2!3d40.7613522!4d-111.8846597",40.7613522,-111.8846597,"355 S 200 E, Salt Lake City, UT 84111"
51,U,4,"https://www.google.com/maps/place/ChargePoint+Charging+Station/@40.7571646,-111.8836092,19.5z/data=!4m5!3m4!1s0x8752f51501b033c1:0x1f5d9a2a2eaeaf37!8m2!3d40.7568729!4d-111.8834648",40.7568729,-111.8834648,"600 S 300 E, Salt Lake City, UT 84111"
52,A,2,"https://www.google.com/maps/place/ChargePoint+Charging+Station/@40.7559067,-111.884264,20z/data=!4m5!3m4!1s0x8752f515a529652f:0x576194c02725cfef!8m2!3d40.756053!4d-111.8844069",40.756053,-111.8844069,"240 E 600 S, Salt Lake City, UT 84111"
53,A,2,"https://www.google.com/maps/place/ChargePoint+Charging+Station/@40.7559067,-111.884264,20z/data=!4m5!3m4!1s0x8752f515bce686fd:0x906ad3658faa4ea1!8m2!3d40.7557391!4d-111.884547",40.7557391,-111.884547,"219 Colfax Ave, Salt Lake City, UT 84111"
54,A,2,"https://www.google.com/maps/place/ChargePoint+Charging+Station/@40.7558456,-111.8843958,21z/data=!4m5!3m4!1s0x8752f515bdb19097:0x48309d8cdec6e7d3!8m2!3d40.755664!4d-111.8846738",40.755664,-111.8846738,"212 E 600 S, Salt Lake City, UT 84111"
55,A,2,"https://www.google.com/maps/place/ChargePoint+Charging+Station/@40.7559378,-111.8840369,20.25z/data=!4m5!3m4!1s0x8752f5150b74a3db:0x4431a5c81a614c31!8m2!3d40.755921!4d-111.8834031",40.755921,-111.8834031,"248 E 600 S, Salt Lake City, UT 84111"
56,A,2,"https://www.google.com/maps/place/ChargePoint+Charging+Station/@40.7555417,-111.8853163,18.75z/data=!4m5!3m4!1s0x8752f515dc5c1e85:0xc40bda18072858b7!8m2!3d40.7554562!4d-111.8861336",40.7554562,-111.8861336,"660 S 200 E, Salt Lake City, UT 84111"
57,A,14,"https://www.google.com/maps/place/ChargePoint+Charging+Station/@40.7589803,-111.8899038,21z/data=!4m5!3m4!1s0x8752f510d939cb33:0xebc75b6bfeb037e!8m2!3d40.7589808!4d-111.8899168",40.7589808,-111.8899168,"35 W 500 S, Salt Lake City, UT 84101"
58,A,4,"https://www.google.com/maps/place/ChargePoint+Charging+Station/@40.7590128,-111.8895425,19.5z/data=!4m5!3m4!1s0x8752f51124964e91:0x1e92a81851af36f3!8m2!3d40.759155!4d-111.8890049",40.759155,-111.8890049,"450 S State St, Salt Lake City, UT 84111"
59,A,8,"https://www.google.com/maps/place/ChargePoint+Charging+Station/@40.7595171,-111.8894477,19.5z/data=!4m5!3m4!1s0x8752f5111d972195:0xb00c387e5cb647ea!8m2!3d40.759799!4d-111.8895742",40.759799,-111.8895742,"450 State St, Salt Lake City, UT 84111"
60,A,4,"https://www.google.com/maps/place/ChargePoint+Charging+Station/@40.7600737,-111.889001,20z/data=!4m5!3m4!1s0x8752f5110f855afb:0xba5f6d3e38862310!8m2!3d40.7602531!4d-111.8888607",40.7602531,-111.8888607,"450 S State St, Salt Lake City, UT 84111"
61,A,2,"https://www.google.com/maps/place/ChargePoint+Charging+Station/@40.7657808,-111.8907072,18z/data=!4m8!1m2!2m1!1schargepoint!3m4!1s0x8752f50f0d746383:0xebba7a4346965962!8m2!3d40.7657036!4d-111.8909845",40.7657036,-111.8909845,"157 S Main St, Salt Lake City, UT 84111"
62,A,4,"https://www.google.com/maps/place/ChargePoint+Charging+Station/@40.7662541,-111.8895216,19z/data=!4m8!1m2!2m1!1schargepoint!3m4!1s0x8752f50f1db77d79:0x3481d0e3b2784314!8m2!3d40.7662202!4d-111.8897592",40.7662202,-111.8897592,"115-123 Regent St, Salt Lake City, UT 84111"
63,U,2,"https://www.google.com/maps/place/ChargePoint+Charging+Station/@40.7675913,-111.890941,19.25z/data=!4m8!1m2!2m1!1schargepoint!3m4!1s0x0:0xcd1bf3fe53d886e7!8m2!3d40.7676182!4d-111.8915585",40.7676182,-111.8915585,"68 S Main St, Salt Lake City, UT 84101"
64,U,2,"https://www.google.com/maps/place/ChargePoint+Charging+Station/@40.775608,-111.887416,21z/data=!4m8!1m2!2m1!1schargepoint!3m4!1s0x0:0xa44ba3cbabe11217!8m2!3d40.7754932!4d-111.8874653",40.7754932,-111.8874653,"300 State St, Salt Lake City, UT 84103"
65,A,2,"https://www.google.com/maps/place/ChargePoint+Charging+Station/@40.7773894,-111.886679,18z/data=!4m8!1m2!2m1!1schargepoint!3m4!1s0x0:0x2caa57cf095c5173!8m2!3d40.7780128!4d-111.8869815",40.7780128,-111.8869815,"300 State St, Salt Lake City, UT 84103"
66,A,4,"https://www.google.com/maps/place/ChargePoint+Charging+Station/@40.7786102,-111.8810559,17.75z/data=!4m8!1m2!2m1!1schargepoint!3m4!1s0x0:0x27315a7881b29cd5!8m2!3d40.7782595!4d-111.8808416",40.7782595,-111.8808416,"383 C St E, Salt Lake City, UT 84103"
67,A,2,"https://www.google.com/maps/place/ChargePoint+Charging+Station/@40.7803029,-111.8801954,18.5z/data=!4m8!1m2!2m1!1schargepoint!3m4!1s0x8752f598a266ba73:0x9ca3f54c138c4b2c!8m2!3d40.7805191!4d-111.8801737",40.7805191,-111.8801737,"324 10th Ave, Salt Lake City, UT 84103"
68,A,2,"https://www.google.com/maps/place/ChargePoint+Charging+Station/@40.7467683,-111.8761514,20.25z/data=!4m8!1m2!2m1!1schargepoint!3m4!1s0x8752f546228bb11b:0xf810abe1c766a11b!8m2!3d40.7467891!4d-111.8763126",40.7467891,-111.8763126,"600 900 S, Salt Lake City, UT 84105"
69,A,2,"https://www.google.com/maps/place/ChargePoint+Charging+Station/@40.7467683,-111.8761514,20.25z/data=!4m8!1m2!2m1!1schargepoint!3m4!1s0x0:0x529c645dee6649f2!8m2!3d40.7466606!4d-111.8763216",40.7466606,-111.8763216,"Salt Lake City, UT 84105"
70,A,2,"https://www.google.com/maps/place/ChargePoint+Charging+Station/@40.7357109,-111.8891143,17z/data=!3m1!4b1!4m8!1m2!2m1!1schargepoint!3m4!1s0x8752f5335e3c7719:0x3f4e207c3d3df58a!8m2!3d40.7357109!4d-111.8869256",40.7357109,-111.8869256,"1575 State St, Salt Lake City, UT 84115"
71,A,2,"https://www.google.com/maps/place/ChargePoint+Charging+Station/@40.7301761,-111.9017254,18z/data=!3m1!4b1!4m8!1m2!2m1!1schargepoint!3m4!1s0x87528ad4ef06a4f3:0x2971be21fc5f0713!8m2!3d40.7301761!4d-111.9006311",40.7301761,-111.9006311,"1834 S 300 W, South Salt Lake, UT 84115"
72,U,10,"https://www.google.com/maps/place/Tesla+Supercharger/@40.7202394,-111.889223,18z/data=!4m8!1m2!2m1!1schargepoint!3m4!1s0x87528ac468cef23d:0x52ba700a3bf74682!8m2!3d40.7203317!4d-111.8887534",40.7203317,-111.8887534,"2312 S State St, South Salt Lake, UT 84115"
73,A,2,"https://www.google.com/maps/place/ChargePoint+Charging+Station/@40.7170978,-111.8891646,19z/data=!4m8!1m2!2m1!1schargepoint!3m4!1s0x87528ac24da3cb27:0x4488000d71b4098f!8m2!3d40.7170978!4d-111.8888392",40.7170978,-111.8888392,"2468 State St, South Salt Lake, UT 84115"
74,A,2,"https://www.google.com/maps/place/ChargePoint+Charging+Station/@40.7170978,-111.8891646,19z/data=!4m8!1m2!2m1!1schargepoint!3m4!1s0x87528ac3aac3de37:0xf865b54efba62030!8m2!3d40.7171802!4d-111.8895319",40.7171802,-111.8895319,"48 E Robert Ave, South Salt Lake, UT 84115"
75,u,0,"https://www.google.com/maps/place/ChargePoint+Charging+Station/@40.7170978,-111.8891646,19z/data=!4m8!1m2!2m1!1schargepoint!3m4!1s0x87528ac3aac3de37:0xf865b54efba62030!8m2!3d40.7171802!4d-111.8895319",40.7171802,-111.8895319,solvingev.com
76,A,4,"https://www.google.com/maps/place/SemaConnect+Charging+Station/@40.6907699,-111.8895266,20.25z/data=!4m8!1m2!2m1!1schargepoint!3m4!1s0x87528a597de5eee5:0xa92db8ec9299e684!8m2!3d40.6906383!4d-111.8892342",40.6906383,-111.8892342,"3702 State St, Salt Lake City, UT 84115"
77,A,2,"https://www.google.com/maps/place/ChargePoint+Charging+Station/@40.6701149,-111.8875766,17.25z/data=!4m8!1m2!2m1!1schargepoint!3m4!1s0x0:0x85c9033b49076aed!8m2!3d40.6697122!4d-111.8877898",40.6697122,-111.8877898,"4689 State St, Murray, UT 84107"
78,A,2,"https://www.google.com/maps/place/ChargePoint+Charging+Station/@40.6701149,-111.8875766,17.25z/data=!4m8!1m2!2m1!1schargepoint!3m4!1s0x0:0x1973d290b8d5aafe!8m2!3d40.669172!4d-111.8875182",40.669172,-111.8875182,"4735 State St, Murray, UT 84107"
79,A,2,"https://www.google.com/maps/place/ChargePoint+Charging+Station/@40.6674995,-111.8933458,17.75z/data=!4m8!1m2!2m1!1schargepoint!3m4!1s0x0:0x908f4e821a71fa2!8m2!3d40.6675765!4d-111.893743",40.6675765,-111.893743,"84 4800 S, Murray, UT 84107"
80,A,2,"https://www.google.com/maps/place/ChargePoint+Charging+Station/@40.6674995,-111.8933458,17.75z/data=!4m8!1m2!2m1!1schargepoint!3m4!1s0x87528a3ab17ccf55:0xdfffc98ee8dae252!8m2!3d40.6664576!4d-111.8927003",40.6664576,-111.8927003,"15 4800 S, Murray, UT 84107"
81,A,3,"https://www.google.com/maps/place/ChargePoint+Charging+Station/@40.6633913,-111.894668,16.25z/data=!4m8!1m2!2m1!1schargepoint!3m4!1s0x0:0x4fb9edcd385790!8m2!3d40.6607266!4d-111.8990993",40.6607266,-111.8990993,"300 W Vine St, Murray, UT 84107"
82,A,4,"https://www.google.com/maps/place/ChargePoint+Charging+Station/@40.6389301,-111.886325,20.25z/data=!4m8!1m2!2m1!1schargepoint!3m4!1s0x87528995e62af11b:0x1c248e6e0aebcdf3!8m2!3d40.6390691!4d-111.885931",40.6390691,-111.885931,"181 6100 S, Murray, UT 84107"
83,U,2,"https://www.google.com/maps/place/ChargePoint+Charging+Station/@40.6256033,-111.8566176,19.5z/data=!4m13!1m7!3m6!1s0x875289d55dcdbf37:0x8ee994fa584ce094!2s6955+Union+Park+Center,+Midvale,+UT+84047!3b1!8m2!3d40.6253947!4d-111.8570914!3m4!1s0x8752627ff5866ba3:0x98eea19b9c3bb9f8!8m2!3d40.6254498!4d-111.8568398",40.6254498,-111.8568398,"6955 Union Park Center, Midvale, UT 84047"
84,U,2,"https://www.google.com/maps/place/ChargePoint+Charging+Station/@40.6256033,-111.8566176,19.5z/data=!4m13!1m7!3m6!1s0x875289d55dcdbf37:0x8ee994fa584ce094!2s6955+Union+Park+Center,+Midvale,+UT+84047!3b1!8m2!3d40.6253947!4d-111.8570914!3m4!1s0x8752627fef3ef2fd:0x8899fed4f802ccc3!8m2!3d40.62532!4d-111.8558199",40.62532,-111.8558199,"6965 Union Park Center, Midvale, UT 84047"
85,U,2,"https://www.google.com/maps/place/SemaConnect+Charging+Station/@40.6336693,-111.8130787,19.75z/data=!4m13!1m7!3m6!1s0x875262558e5d7523:0x513e6da0ae22b448!2s2795+E+Cottonwood+Pkwy,+Cottonwood+Heights,+UT+84121!3b1!8m2!3d40.6335533!4d-111.8132148!3m4!1s0x8752625590003699:0xa0e825d3180e5381!8m2!3d40.6337333!4d-111.8128985",40.6337333,-111.8128985,"2795 E Cottonwood Pkwy, Salt Lake City, UT 84121"
86,A,2,"https://www.google.com/maps/place/ChargePoint+Charging+Station/@40.6677787,-111.8414649,18z/data=!4m13!1m7!3m6!1s0x875261f672e876ad:0x624e6c4eea2f4ef4!2s4700+Highland+Dr,+Holladay,+UT+84117!3b1!8m2!3d40.6678868!4d-111.8406471!3m4!1s0x875261f669dba849:0x6eb7e37352d7a818!8m2!3d40.6680485!4d-111.8405018",40.6680485,-111.8405018,"4700 Highland Dr, Holladay, UT 84117"
87,A,2,"https://www.google.com/maps/place/ChargePoint+Charging+Station/@40.6764735,-111.8302769,14.25z/data=!4m8!1m2!2m1!1schargepoint!3m4!1s0x0:0x9aa3657151cbf96d!8m2!3d40.6883141!4d-111.8248504",40.6883141,-111.8248504,"3802 S 2300 E, Salt Lake City, UT 84109"
88,A,4,"https://www.google.com/maps/place/EVgo+Charging+Station/@40.700716,-111.8008122,20z/data=!4m13!1m7!3m6!1s0x8752610f1d5a00f7:0x951615e951244405!2s3285+E+3300+S,+Salt+Lake+City,+UT+84109!3b1!8m2!3d40.7008332!4d-111.8010118!3m4!1s0x8752610efccf1b73:0x3ca7d3c8f32891a2!8m2!3d40.7006502!4d-111.8009365",40.7006502,-111.8009365,"3285 E 3300 S, Salt Lake City, UT 84109"
89,A,4,"https://www.google.com/maps/place/ChargePoint+Charging+Station/@40.6071046,-111.9872883,18z/data=!4m13!1m7!3m6!1s0x87528ee54a8dc389:0xa31f579666e0a702!2s7960+4000+W,+West+Jordan,+UT+84088!3b1!8m2!3d40.6068969!4d-111.987873!3m4!1s0x87528ee54582ac0b:0x51b535fab84bda74!8m2!3d40.6074183!4d-111.9872294",40.6074183,-111.9872294,"7960 4000 W, West Jordan, UT 84088"
90,U,1,"https://www.google.com/maps/place/SemaConnect+Charging+Station/@40.5874755,-111.9832847,19z/data=!4m13!1m7!3m6!1s0x87528f10dedcc3ab:0xec00d189f6ee057e!2s3863+9000+S,+West+Jordan,+UT+84088!3b1!8m2!3d40.5874047!4d-111.9832692!3m4!1s0x87528f10dcfa0b7d:0xb463cf4ba54768bf!8m2!3d40.5872401!4d-111.9835252",40.5872401,-111.9835252,"3863 9000 S, West Jordan, UT 84088"
91,A,3,"https://www.google.com/maps/place/EVgo+Charging+Station/@40.5472627,-112.0008823,19.25z/data=!4m13!1m7!3m6!1s0x875285778b55e715:0x2b01d105fe782e68!2s4628+Daybreak+Rim+Way,+South+Jordan,+UT+84009!3b1!8m2!3d40.5470676!4d-112.0013344!3m4!1s0x87528577f49900bd:0xcc954342c500cef3!8m2!3d40.546975!4d-112.0013143",40.546975,-112.0013143,"4628 Daybreak Rim Way, South Jordan, UT 84095"
92,A,4,"https://www.google.com/maps/place/ChargePoint+Charging+Station/@40.5200827,-111.9816389,17z/data=!4m13!1m7!3m6!1s0x8752844b326b95e1:0xddb8e4e7a4d6a8d0!2s3741+W+12600+S,+Riverton,+UT+84065!3b1!8m2!3d40.5205639!4d-111.9804265!3m4!1s0x8752844a4adea049:0xbb0fe0832a24cda3!8m2!3d40.519113!4d-111.9790017",40.519113,-111.9790017,"3741 W 12600 S, Riverton, UT 84065"
93,A,2,"https://www.google.com/maps/place/ChargePoint+Charging+Station/@40.5205275,-111.969149,14z/data=!4m8!1m2!2m1!1schargepoint!3m4!1s0x0:0x4dbe35a8272a2a9!8m2!3d40.5424105!4d-111.9401532",40.5424105,-111.9401532,"11520 S Redwood Rd, South Jordan, UT 84095"
94,A,1,"https://www.google.com/maps/place/SemaConnect+Charging+Station/@40.5219852,-111.9386927,19.75z/data=!4m8!1m2!2m1!1schargepoint!3m4!1s0x8752868fcff4f27d:0x71cea87f43d02ec0!8m2!3d40.5219293!4d-111.9378975",40.5219293,-111.9378975,"12623 S Redwood Rd, Riverton, UT 84065"
95,A,2,"https://www.google.com/maps/place/ChargePoint+Charging+Station/@40.5074283,-112.0235736,18.5z/data=!4m13!1m7!3m6!1s0x875284e765759c57:0x34414019b61647d9!2s5541+13400+S,+Riverton,+UT+84096!3b1!8m2!3d40.5072645!4d-112.0230701!3m4!1s0x875284e773a2c89b:0xd9863845955be7ab!8m2!3d40.5070421!4d-112.0225299",40.5070421,-112.0225299,"5541 13400 S, Riverton, UT 84096"
96,A,4,"https://www.google.com/maps/place/ChargePoint+Charging+Station/@40.4806365,-111.9805171,18.75z/data=!4m13!1m7!3m6!1s0x8752838af669bbcf:0x332ae1e30ef798d8!2s14788+Academy+Pkwy,+Riverton,+UT+84065!3b1!8m2!3d40.4822142!4d-111.9787261!3m4!1s0x8752838bc6a0cddf:0xe5d4f23da1f74971!8m2!3d40.480157!4d-111.9809322",40.480157,-111.9809322,"14939 S Tumble Rock Way, Herriman, UT 84096"
97,A,8,"https://www.google.com/maps/place/ChargePoint+Charging+Station/@40.4809374,-111.9807946,18.75z/data=!4m13!1m7!3m6!1s0x8752838af669bbcf:0x332ae1e30ef798d8!2s14788+Academy+Pkwy,+Riverton,+UT+84065!3b1!8m2!3d40.4822142!4d-111.9787261!3m4!1s0x8752838a32f5a5a9:0xa233a2429a12e65d!8m2!3d40.4810991!4d-111.9812058",40.4810991,-111.9812058,"14917 S Tumble Rock Way, Herriman, UT 84096"
98,A,13,"https://www.google.com/maps/place/ChargePoint+Charging+Station/@40.4809374,-111.9807946,18.75z/data=!4m13!1m7!3m6!1s0x8752838af669bbcf:0x332ae1e30ef798d8!2s14788+Academy+Pkwy,+Riverton,+UT+84065!3b1!8m2!3d40.4822142!4d-111.9787261!3m4!1s0x8752838a4a7df3d9:0x8a19be2ac0c3644a!8m2!3d40.4812398!4d-111.9805399",40.4812398,-111.9805399,"14788 Academy Pkwy, Riverton, UT 84065"
99,A,3,"https://www.google.com/maps/place/ChargePoint+Charging+Station/@40.4809374,-111.9807946,18.75z/data=!4m13!1m7!3m6!1s0x8752838af669bbcf:0x332ae1e30ef798d8!2s14788+Academy+Pkwy,+Riverton,+UT+84065!3b1!8m2!3d40.4822142!4d-111.9787261!3m4!1s0x8752838a398b5d91:0xcf72741bc4656da9!8m2!3d40.4816978!4d-111.9809188",40.4816978,-111.9809188,"14788 Academy Pkwy, Riverton, UT 84065"
100,A,8,"https://www.google.com/maps/place/ChargePoint+Charging+Station/@40.4809584,-111.9781455,18.25z/data=!4m13!1m7!3m6!1s0x8752838af669bbcf:0x332ae1e30ef798d8!2s14788+Academy+Pkwy,+Riverton,+UT+84065!3b1!8m2!3d40.4822142!4d-111.9787261!3m4!1s0x8752838b3a12563f:0xad665886d854ec6f!8m2!3d40.480969!4d-111.9768982",40.480969,-111.9768982,"14836 Beckenbauer Ave, Herriman, UT 84096"
101,A,2,"https://www.google.com/maps/place/ChargePoint+Charging+Station/@40.4809584,-111.9781455,18.25z/data=!4m13!1m7!3m6!1s0x8752838af669bbcf:0x332ae1e30ef798d8!2s14788+Academy+Pkwy,+Riverton,+UT+84065!3b1!8m2!3d40.4822142!4d-111.9787261!3m4!1s0x875283f4acc3f8c3:0x11fe1a3b146e0b23!8m2!3d40.4799601!4d-111.9760258",40.4799601,-111.9760258,"14936 Beckenbauer Ave, Herriman, UT 84096"
102,A,6,"https://www.google.com/maps/place/ChargePoint+Charging+Station/@40.5824292,-111.9169419,19z/data=!4m5!3m4!1s0x8752889ab4fee575:0x2c26359402de9f76!8m2!3d40.582443!4d-111.9166497",40.582443,-111.9166497,"9300 S Riverside Dr, Sandy, UT 84070"
103,A,4,"https://www.google.com/maps/place/ChargePoint+Charging+Station/@40.5909557,-111.9090011,17.5z/data=!4m5!3m4!1s0x8752888b9b0646e5:0x134e34dd05a8eebb!8m2!3d40.5917359!4d-111.9096002",40.5917359,-111.9096002,"8775 700 W, Sandy, UT 84070"
104,A,2,"https://www.google.com/maps/place/ChargePoint+Charging+Station/@40.5741968,-111.9010049,19.75z/data=!4m12!1m6!3m5!1s0x875287d50118fa61:0xfe1b867db39b6060!2sSalt+Lake+Community+College+Miller+Campus!8m2!3d40.5751287!4d-111.901856!3m4!1s0x875287d455b3a125:0xfc7964511bfa59c2!8m2!3d40.5742056!4d-111.9013993",40.5742056,-111.9013993,"9750 S 300 W, Sandy, UT 84070"
105,A,18,"https://www.google.com/maps/place/ChargePoint+Charging+Station/@40.5702487,-111.8963936,19.25z/data=!4m8!1m2!2m1!1schargepoint!3m4!1s0x0:0xdef8a675999b75eb!8m2!3d40.570663!4d-111.8963201",40.570663,-111.8963201,"210 Sego Lily Dr, Sandy, UT 84070"
106,A,10,"https://www.google.com/maps/place/ChargePoint+Charging+Station/@40.5727427,-111.8946318,17.25z/data=!4m8!1m2!2m1!1schargepoint!3m4!1s0x0:0x306ed5b25fee25ab!8m2!3d40.5747318!4d-111.8925574",40.5747318,-111.8925574,"75 W Towne Ridge Pkwy, Sandy, UT 84070"
107,A,8,"https://www.google.com/maps/place/ChargePoint+Charging+Station/@40.5807964,-111.8926556,17.25z/data=!4m8!1m2!2m1!1schargepoint!3m4!1s0x8752887999800013:0x277d55212a18ea53!8m2!3d40.5820279!4d-111.8950519",40.5820279,-111.8950519,"9256 S, State St, Sandy, UT 84070"
108,A,4,"https://www.google.com/maps/place/ChargePoint+Charging+Station/@40.5807964,-111.8926556,17.25z/data=!4m8!1m2!2m1!1schargepoint!3m4!1s0x0:0xe7c086eb0958454f!8m2!3d40.5818441!4d-111.8928391",40.5818441,-111.8928391,"9256 S, State St, Sandy, UT 84070"
109,A,6,"https://www.google.com/maps/place/ChargePoint+Charging+Station/@40.5870014,-111.8853136,15.25z/data=!4m8!1m2!2m1!1schargepoint!3m4!1s0x0:0x9cf1f902f1feef90!8m2!3d40.5935232!4d-111.8791866",40.5935232,-111.8791866,"440 E 8680 S, Sandy, UT 84070"
110,A,10,"https://www.google.com/maps/place/ChargePoint+Charging+Station/@40.580901,-111.8541063,17.75z/data=!4m8!1m2!2m1!1schargepoint!3m4!1s0x0:0x37e70f290d1d7c84!8m2!3d40.5813201!4d-111.8542998",40.5813201,-111.8542998,"1245 E 9400 S, Sandy, UT 84094"
111,U,2,"https://www.google.com/maps/place/ChargePoint+Charging+Station/@40.5804795,-111.8543296,17.75z/data=!4m8!1m2!2m1!1schargepoint!3m4!1s0x0:0xca5787b9a5e5935b!8m2!3d40.5795442!4d-111.855327",40.5795442,-111.855327,"9499 S 1210 E, Sandy, UT 84094"
112,A,6,"https://www.google.com/maps/place/ChargePoint+Charging+Station/@40.575868,-111.837036,15.5z/data=!4m8!1m2!2m1!1schargepoint!3m4!1s0x0:0x3b2b282904ae930a!8m2!3d40.5779343!4d-111.8342355",40.5779343,-111.8342355,"9565 Highland Dr, Sandy, UT 84092"
113,U,2,"https://www.google.com/maps/place/Tesla+Destination+Charger/@40.5614014,-111.9012386,18.75z/data=!4m13!1m7!3m6!1s0x875287cb9fdee947:0x3d0730b7c20bd093!2s10499+S+Jordan+Gateway,+South+Jordan,+UT+84095!3b1!8m2!3d40.5610943!4d-111.9015266!3m4!1s0x875287cb76ad6e9b:0x2e4518f652936d84!8m2!3d40.5610016!4d-111.9020793",40.5610016,-111.9020793,"10499 S Jordan Gateway, South Jordan, UT 84095"
114,A,2,"https://www.google.com/maps/place/ChargePoint+Charging+Station/@40.5355461,-111.8950303,18.25z/data=!4m13!1m7!3m6!1s0x87528706f4e443c5:0x9333051e912a289c!2s180+S+Election+Rd,+Draper,+UT+84020!3b1!8m2!3d40.535589!4d-111.8958907!3m4!1s0x87528706568d9f8d:0x1ac72b560f24ff99!8m2!3d40.5364569!4d-111.8953838",40.5364569,-111.8953838,"170 West S Election Rd, Draper, UT 84020"
115,A,4,"https://www.google.com/maps/place/ChargePoint+Charging+Station/@40.5361605,-111.8953877,17.5z/data=!4m13!1m7!3m6!1s0x87528706f4e443c5:0x9333051e912a289c!2s180+S+Election+Rd,+Draper,+UT+84020!3b1!8m2!3d40.535589!4d-111.8958907!3m4!1s0x87528707135043b7:0x4dbe58dcd8c97f7f!8m2!3d40.5377462!4d-111.8966901",40.5377462,-111.8966901,"11781 Lone Peak Pkwy, Draper, UT 84020"
116,A,2,"https://www.google.com/maps/place/ChargePoint+Charging+Station/@40.5278261,-111.8562002,16z/data=!4m8!1m2!2m1!1schargepoint!3m4!1s0x0:0x5b9d1323c7a0ee28!8m2!3d40.5291909!4d-111.8592565",40.5291909,-111.8592565,"1101 Draper Pkwy, Draper, UT 84020"
117,A,4,"https://www.google.com/maps/place/ChargePoint+Charging+Station/@40.5266518,-111.8572302,16z/data=!4m8!1m2!2m1!1schargepoint!3m4!1s0x0:0x93b9fbf35fee6c26!8m2!3d40.5251195!4d-111.8616034",40.5251195,-111.8616034,"1020 Pioneer Rd, Draper, UT 84020"
118,A,4,"https://www.google.com/maps/place/ChargePoint+Charging+Station/@40.5266518,-111.8572302,16z/data=!4m8!1m2!2m1!1schargepoint!3m4!1s0x0:0xa64fe598c7d59ce3!8m2!3d40.5242062!4d-111.8542381",40.5242062,-111.8542381,"12500 1300 E, Draper, UT 84020"
119,U,1,"https://www.google.com/maps/place/SemaConnect+Charging+Station/@40.5281869,-111.853084,19z/data=!4m8!1m2!2m1!1schargepoint!3m4!1s0x87527d8b2a33a27d:0xffa2bd277cda4ddc!8m2!3d40.5281986!4d-111.8534958",40.5281986,-111.8534958,"1311 Draper Pkwy, Draper, UT 84020"
120,A,10,"https://www.google.com/maps/place/ChargePoint+Charging+Station/@40.5002952,-111.8871576,18z/data=!4m8!1m2!2m1!1schargepoint!3m4!1s0x0:0x865f304747a73e9f!8m2!3d40.5003851!4d-111.88857",40.5003851,-111.88857,"98 13800 S, Draper, UT 84020"
121,A,4,"https://www.google.com/maps/place/ChargePoint+Charging+Station/@40.491198,-111.8750653,16.75z/data=!4m8!1m2!2m1!1schargepoint!3m4!1s0x0:0xbcc885f224a0a163!8m2!3d40.4912301!4d-111.8718696",40.4912301,-111.8718696,"657 Vestry Rd, Draper, UT 84020"
122,A,12,"https://www.google.com/maps/place/ChargePoint+Charging+Station/@40.4818331,-111.8895341,15.25z/data=!4m8!1m2!2m1!1schargepoint!3m4!1s0x0:0xd7d946fcdce2f5ed!8m2!3d40.48499!4d-111.8955588",40.48499,-111.8955588,"14717 Minuteman Dr, Draper, UT 84020"
123,A,1,"https://www.google.com/maps/place/ChargePoint+Charging+Station/@40.4818331,-111.8895341,15.25z/data=!4m8!1m2!2m1!1schargepoint!3m4!1s0x0:0x7bda62aff51cb65!8m2!3d40.4819238!4d-111.8984127",40.4819238,-111.8984127,"14814 Minuteman Dr, Draper, UT 84020"
124,A,4,"https://www.google.com/maps/place/ChargePoint+Charging+Station/@40.4818331,-111.8895341,15.25z/data=!4m8!1m2!2m1!1schargepoint!3m4!1s0x0:0xdc3c038e668479ea!8m2!3d40.4804426!4d-111.8920907",40.4804426,-111.8920907,"15 W Scenic Pointe Dr, Draper, UT 84020"
125,A,12,"https://www.google.com/maps/place/ChargePoint+Charging+Station/@40.4837971,-111.8961677,19z/data=!4m8!1m2!2m1!1schargepoint!3m4!1s0x875280dc5659a30f:0x7629e6a1da77649b!8m2!3d40.4837971!4d-111.8957808",40.4837971,-111.8957808,"14727 Minuteman Dr, Draper, UT 84020"
